{"type":"FeatureCollection","features":[{"type":"Feature","properties":{"name":"Hanoi","scalerank":2,"featurecla":"Admin-0 capital","adm0name":"Vietnam"},"geometry":{"type":"Point","coordinates":[105.848068,21.035273]}},{"type":"Feature","properties":{"name":"Ankara","scalerank":2,"featurecla":"Admin-0 capital","adm0name":"Turkey"},"geometry":{"type":"Point","coordinates":[32.862446,39.929184]}},{"type":"Feature","properties":{"name":"Budapest","scalerank":2,"featurecla":"Admin-0 capital","adm0name":"Hungary"},"geometry":{"type":"Point","coordinates":[19.081375,47.501952]}},{"type":"Feature","properties":{"name":"Sanaa","scalerank":2,"featurecla":"Admin-0 capital","adm0name":"Yemen"},"geometry":{"type":"Point","coordinates":[44.204648,15.356679]}},{"type":"Feature","properties":{"name":"Bucharest","scalerank":2,"featurecla":"Admin-0 capital","adm0name":"Romania"},"geometry":{"type":"Point","coordinates":[26.098001,44.435318]}},{"type":"Feature","properties":{"name":"Damascus","scalerank":2,"featurecla":"Admin-0 capital","adm0name":"Syria"},"geometry":{"type":"Point","coordinates":[36.29805,33.50198]}},{"type":"Feature","properties":{"name":"Lisbon","scalerank":2,"featurecla":"Admin-0 capital","adm0name":"Portugal"},"geometry":{"type":"Point","coordinates":[-9.146812,38.724669]}},{"type":"Feature","properties":{"name":"Khartoum","scalerank":2,"featurecla":"Admin-0 capital","adm0name":"Sudan"},"geometry":{"type":"Point","coordinates":[32.532233,15.590024]}},{"type":"Feature","properties":{"name":"Oslo","scalerank":2,"featurecla":"Admin-0 capital","adm0name":"Norway"},"geometry":{"type":"Point","coordinates":[10.748033,59.918636]}},{"type":"Feature","properties":{"name":"Warsaw","scalerank":2,"featurecla":"Admin-0 capital","adm0name":"Poland"},"geometry":{"type":"Point","coordinates":[21.005347,52.230872]}},{"type":"Feature","properties":{"name":"Pyongyang","scalerank":2,"featurecla":"Admin-0 capital","adm0name":"North Korea"},"geometry":{"type":"Point","coordinates":[125.752745,39.021385]}},{"type":"Feature","properties":{"name":"Dar es Salaam","scalerank":2,"featurecla":"Admin-0 capital","adm0name":"Tanzania"},"geometry":{"type":"Point","coordinates":[39.266396,-6.798067]}},{"type":"Feature","properties":{"name":"Dublin","scalerank":2,"featurecla":"Admin-0 capital","adm0name":"Ireland"},"geometry":{"type":"Point","coordinates":[-6.25698,53.346731]}},{"type":"Feature","properties":{"name":"Monrovia","scalerank":2,"featurecla":"Admin-0 capital","adm0name":"Liberia"},"geometry":{"type":"Point","coordinates":[-10.79966,6.314582]}},{"type":"Feature","properties":{"name":"Kuala Lumpur","scalerank":2,"featurecla":"Admin-0 capital","adm0name":"Malaysia"},"geometry":{"type":"Point","coordinates":[101.688699,3.139797]}},{"type":"Feature","properties":{"name":"Havana","scalerank":2,"featurecla":"Admin-0 capital","adm0name":"Cuba"},"geometry":{"type":"Point","coordinates":[-82.366128,23.133905]}},{"type":"Feature","properties":{"name":"Prague","scalerank":2,"featurecla":"Admin-0 capital","adm0name":"Czechia"},"geometry":{"type":"Point","coordinates":[14.422939,50.086967]}},{"type":"Feature","properties":{"name":"Kuwait City","scalerank":2,"featurecla":"Admin-0 capital","adm0name":"Kuwait"},"geometry":{"type":"Point","coordinates":[47.976355,29.371664]}},{"type":"Feature","properties":{"name":"Santo Domingo","scalerank":2,"featurecla":"Admin-0 capital","adm0name":"Dominican Republic"},"geometry":{"type":"Point","coordinates":[-69.929742,18.470745]}},{"type":"Feature","properties":{"name":"Accra","scalerank":2,"featurecla":"Admin-0 capital","adm0name":"Ghana"},"geometry":{"type":"Point","coordinates":[-0.218662,5.55198]}},{"type":"Feature","properties":{"name":"Tripoli","scalerank":2,"featurecla":"Admin-0 capital","adm0name":"Libya"},"geometry":{"type":"Point","coordinates":[13.180012,32.8925]}},{"type":"Feature","properties":{"name":"Tel Aviv","scalerank":2,"featurecla":"Admin-0 capital alt","adm0name":"Israel"},"geometry":{"type":"Point","coordinates":[34.768066,32.081937]}},{"type":"Feature","properties":{"name":"Helsinki","scalerank":2,"featurecla":"Admin-0 capital","adm0name":"Finland"},"geometry":{"type":"Point","coordinates":[24.932457,60.163804]}},{"type":"Feature","properties":{"name":"København","scalerank":2,"featurecla":"Admin-0 capital","adm0name":"Denmark"},"geometry":{"type":"Point","coordinates":[12.56154,55.68051]}},{"type":"Feature","properties":{"name":"Abidjan","scalerank":2,"featurecla":"Admin-0 capital","adm0name":"Ivory Coast"},"geometry":{"type":"Point","coordinates":[-4.020207,5.323126]}},{"type":"Feature","properties":{"name":"Brasília","scalerank":2,"featurecla":"Admin-0 capital","adm0name":"Brazil"},"geometry":{"type":"Point","coordinates":[-47.917998,-15.781394]}},{"type":"Feature","properties":{"name":"Brussels","scalerank":2,"featurecla":"Admin-0 capital","adm0name":"Belgium"},"geometry":{"type":"Point","coordinates":[4.331371,50.835263]}},{"type":"Feature","properties":{"name":"Dhaka","scalerank":2,"featurecla":"Admin-0 capital","adm0name":"Bangladesh"},"geometry":{"type":"Point","coordinates":[90.406634,23.725006]}},{"type":"Feature","properties":{"name":"Luanda","scalerank":2,"featurecla":"Admin-0 capital","adm0name":"Angola"},"geometry":{"type":"Point","coordinates":[13.232481,-8.83634]}},{"type":"Feature","properties":{"name":"Algiers","scalerank":2,"featurecla":"Admin-0 capital","adm0name":"Algeria"},"geometry":{"type":"Point","coordinates":[3.048607,36.765011]}},{"type":"Feature","properties":{"name":"Yangon","scalerank":2,"featurecla":"Admin-0 capital","adm0name":"Myanmar"},"geometry":{"type":"Point","coordinates":[96.164732,16.7853]}},{"type":"Feature","properties":{"name":"Caracas","scalerank":1,"featurecla":"Admin-0 capital","adm0name":"Venezuela"},"geometry":{"type":"Point","coordinates":[-66.918983,10.502944]}},{"type":"Feature","properties":{"name":"Kyiv","scalerank":1,"featurecla":"Admin-0 capital","adm0name":"Ukraine"},"geometry":{"type":"Point","coordinates":[30.514682,50.435313]}},{"type":"Feature","properties":{"name":"Tashkent","scalerank":1,"featurecla":"Admin-0 capital","adm0name":"Uzbekistan"},"geometry":{"type":"Point","coordinates":[69.268823,41.303828]}},{"type":"Feature","properties":{"name":"Madrid","scalerank":1,"featurecla":"Admin-0 capital","adm0name":"Spain"},"geometry":{"type":"Point","coordinates":[-3.685297,40.401972]}},{"type":"Feature","properties":{"name":"Geneva","scalerank":1,"featurecla":"Admin-1 capital","adm0name":"Switzerland"},"geometry":{"type":"Point","coordinates":[6.140028,46.210008]}},{"type":"Feature","properties":{"name":"Stockholm","scalerank":1,"featurecla":"Admin-0 capital","adm0name":"Sweden"},"geometry":{"type":"Point","coordinates":[18.0663,59.324127]}},{"type":"Feature","properties":{"name":"Bangkok","scalerank":1,"featurecla":"Admin-0 capital","adm0name":"Thailand"},"geometry":{"type":"Point","coordinates":[100.514699,13.751945]}},{"type":"Feature","properties":{"name":"Lima","scalerank":1,"featurecla":"Admin-0 capital","adm0name":"Peru"},"geometry":{"type":"Point","coordinates":[-77.052008,-12.046067]}},{"type":"Feature","properties":{"name":"Dakar","scalerank":1,"featurecla":"Admin-0 capital","adm0name":"Senegal"},"geometry":{"type":"Point","coordinates":[-17.475076,14.717778]}},{"type":"Feature","properties":{"name":"Johannesburg","scalerank":1,"featurecla":"Admin-0 capital","adm0name":"South Africa"},"geometry":{"type":"Point","coordinates":[28.028064,-26.168099]}},{"type":"Feature","properties":{"name":"Amsterdam","scalerank":1,"featurecla":"Admin-0 capital","adm0name":"Netherlands"},"geometry":{"type":"Point","coordinates":[4.914694,52.351914]}},{"type":"Feature","properties":{"name":"Seoul","scalerank":1,"featurecla":"Admin-0 capital","adm0name":"South Korea"},"geometry":{"type":"Point","coordinates":[126.997785,37.568295]}},{"type":"Feature","properties":{"name":"Manila","scalerank":1,"featurecla":"Admin-0 capital","adm0name":"Philippines"},"geometry":{"type":"Point","coordinates":[120.980271,14.606105]}},{"type":"Feature","properties":{"name":"Berlin","scalerank":1,"featurecla":"Admin-0 capital","adm0name":"Germany"},"geometry":{"type":"Point","coordinates":[13.399603,52.523764]}},{"type":"Feature","properties":{"name":"Kinshasa","scalerank":1,"featurecla":"Admin-0 capital","adm0name":"Congo (Kinshasa)"},"geometry":{"type":"Point","coordinates":[15.313026,-4.327778]}},{"type":"Feature","properties":{"name":"New Delhi","scalerank":1,"featurecla":"Admin-0 capital","adm0name":"India"},"geometry":{"type":"Point","coordinates":[77.19998,28.600023]}},{"type":"Feature","properties":{"name":"Athens","scalerank":1,"featurecla":"Admin-0 capital","adm0name":"Greece"},"geometry":{"type":"Point","coordinates":[23.731375,37.985272]}},{"type":"Feature","properties":{"name":"Baghdad","scalerank":1,"featurecla":"Admin-0 capital","adm0name":"Iraq"},"geometry":{"type":"Point","coordinates":[44.391923,33.340594]}},{"type":"Feature","properties":{"name":"Addis Ababa","scalerank":1,"featurecla":"Admin-0 capital","adm0name":"Ethiopia"},"geometry":{"type":"Point","coordinates":[38.698059,9.035256]}},{"type":"Feature","properties":{"name":"Tehran","scalerank":1,"featurecla":"Admin-0 capital","adm0name":"Iran"},"geometry":{"type":"Point","coordinates":[51.422398,35.673889]}},{"type":"Feature","properties":{"name":"Toronto","scalerank":1,"featurecla":"Admin-1 capital","adm0name":"Canada"},"geometry":{"type":"Point","coordinates":[-79.389459,43.664645]}},{"type":"Feature","properties":{"name":"Buenos Aires","scalerank":1,"featurecla":"Admin-0 capital","adm0name":"Argentina"},"geometry":{"type":"Point","coordinates":[-58.432513,-34.610715]}},{"type":"Feature","properties":{"name":"Kabul","scalerank":1,"featurecla":"Admin-0 capital","adm0name":"Afghanistan"},"geometry":{"type":"Point","coordinates":[69.181314,34.518636]}},{"type":"Feature","properties":{"name":"Vienna","scalerank":1,"featurecla":"Admin-0 capital","adm0name":"Austria"},"geometry":{"type":"Point","coordinates":[16.364693,48.201961]}},{"type":"Feature","properties":{"name":"Taipei","scalerank":1,"featurecla":"Admin-0 capital","adm0name":"Taiwan"},"geometry":{"type":"Point","coordinates":[121.568333,25.035833]}},{"type":"Feature","properties":{"name":"Washington,  D.C.","scalerank":0,"featurecla":"Admin-0 capital","adm0name":"United States of America"},"geometry":{"type":"Point","coordinates":[-77.011364,38.901495]}},{"type":"Feature","properties":{"name":"New York","scalerank":0,"featurecla":"Populated place","adm0name":"United States of America"},"geometry":{"type":"Point","coordinates":[-73.995718,40.721562]}},{"type":"Feature","properties":{"name":"London","scalerank":0,"featurecla":"Admin-0 capital","adm0name":"United Kingdom"},"geometry":{"type":"Point","coordinates":[-0.118668,51.501941]}},{"type":"Feature","properties":{"name":"Istanbul","scalerank":0,"featurecla":"Admin-1 capital","adm0name":"Turkey"},"geometry":{"type":"Point","coordinates":[28.974277,41.017602]}},{"type":"Feature","properties":{"name":"Riyadh","scalerank":0,"featurecla":"Admin-0 capital","adm0name":"Saudi Arabia"},"geometry":{"type":"Point","coordinates":[46.720487,24.634497]}},{"type":"Feature","properties":{"name":"Cape Town","scalerank":0,"featurecla":"Admin-0 capital","adm0name":"South Africa"},"geometry":{"type":"Point","coordinates":[18.433042,-33.918065]}},{"type":"Feature","properties":{"name":"Moscow","scalerank":0,"featurecla":"Admin-0 capital","adm0name":"Russia"},"geometry":{"type":"Point","coordinates":[37.613577,55.75411]}},{"type":"Feature","properties":{"name":"Mexico City","scalerank":0,"featurecla":"Admin-0 capital","adm0name":"Mexico"},"geometry":{"type":"Point","coordinates":[-99.132934,19.444388]}},{"type":"Feature","properties":{"name":"Lagos","scalerank":0,"featurecla":"Admin-0 capital alt","adm0name":"Nigeria"},"geometry":{"type":"Point","coordinates":[3.389585,6.445208]}},{"type":"Feature","properties":{"name":"Rome","scalerank":0,"featurecla":"Admin-0 capital","adm0name":"Italy"},"geometry":{"type":"Point","coordinates":[12.481313,41.897902]}},{"type":"Feature","properties":{"name":"Beijing","scalerank":0,"featurecla":"Admin-0 capital","adm0name":"China"},"geometry":{"type":"Point","coordinates":[116.394201,39.90172]}},{"type":"Feature","properties":{"name":"Nairobi","scalerank":0,"featurecla":"Admin-0 capital","adm0name":"Kenya"},"geometry":{"type":"Point","coordinates":[36.814711,-1.281401]}},{"type":"Feature","properties":{"name":"Jakarta","scalerank":0,"featurecla":"Admin-0 capital","adm0name":"Indonesia"},"geometry":{"type":"Point","coordinates":[106.827492,-6.172472]}},{"type":"Feature","properties":{"name":"Bogota","scalerank":0,"featurecla":"Admin-0 capital","adm0name":"Colombia"},"geometry":{"type":"Point","coordinates":[-74.08529,4.598369]}},{"type":"Feature","properties":{"name":"Cairo","scalerank":0,"featurecla":"Admin-0 capital","adm0name":"Egypt"},"geometry":{"type":"Point","coordinates":[31.248022,30.051906]}},{"type":"Feature","properties":{"name":"Tokyo","scalerank":0,"featurecla":"Admin-0 capital","adm0name":"Japan"},"geometry":{"type":"Point","coordinates":[139.749462,35.686963]}},{"type":"Feature","properties":{"name":"Mumbai","scalerank":0,"featurecla":"Admin-1 capital","adm0name":"India"},"geometry":{"type":"Point","coordinates":[72.875839,19.068408]}},{"type":"Feature","properties":{"name":"Paris","scalerank":0,"featurecla":"Admin-0 capital","adm0name":"France"},"geometry":{"type":"Point","coordinates":[2.352992,48.858092]}},{"type":"Feature","properties":{"name":"Santiago","scalerank":0,"featurecla":"Admin-0 capital","adm0name":"Chile"},"geometry":{"type":"Point","coordinates":[-70.650504,-33.440205]}},{"type":"Feature","properties":{"name":"Sydney","scalerank":0,"featurecla":"Admin-1 capital","adm0name":"Australia"},"geometry":{"type":"Point","coordinates":[151.212548,-33.871373]}},{"type":"Feature","properties":{"name":"Singapore","scalerank":0,"featurecla":"Admin-0 capital","adm0name":"Singapore"},"geometry":{"type":"Point","coordinates":[103.853875,1.294979]}}]}